{"type":"FeatureCollection","features":[{"type":"Feature","properties":{"ADMIN":"Afghanistan"},"geometry":{"type":"Polygon","coordinates":[[[61.211,35.65],[62.985,35.404],[65.746,37.661],[69.196,37.151],[70.807,38.486],[71.845,36.738],[75.158,37.133],[71.846,36.51],[69.318,31.901],[64.148,29.341],[60.874,29.829],[61.781,30.736],[60.536,32.981],[61.211,35.65]]]}},{"type":"Feature","properties":{"ADMIN":"Angola"},"geometry":{"type":"MultiPolygon","coordinates":[[[[23.904,-11.722],[24.016,-12.911],[21.934,-12.898],[21.888,-16.08],[23.215,-17.523],[11.734,-17.302],[13.739,-11.298],[12.322,-6.1],[16.327,-5.877],[17.473,-8.069],[20.092,-6.943],[21.728,-7.291],[22.155,-11.085],[23.912,-10.927],[23.904,-11.722]]]]}},{"type":"Feature","properties":{"ADMIN":"Albania"},"geometry":{"type":"Polygon","coordinates":[[[21.02,40.843],[20.15,39.625],[19.406,40.251],[19.738,42.688],[21.02,40.843]]]}},{"type":"Feature","properties":{"ADMIN":"United Arab Emirates"},"geometry":{"type":"Polygon","coordinates":[[[51.58,24.245],[54.008,24.122],[56.261,25.715],[55.007,22.497],[52.001,23.001],[51.58,24.245]]]}},{"type":"Feature","properties":{"ADMIN":"Argentina"},"geometry":{"type":"MultiPolygon","coordinates":[[[[-66.96,-54.897],[-68.633,-54.869],[-68.634,-52.636],[-67.75,-53.85],[-65.05,-54.7],[-66.96,-54.897]]],[[[-68.572,-52.299],[-71.915,-52.009],[-73.328,-50.379],[-71.223,-44.784],[-72.149,-42.255],[-69.817,-34.194],[-70.535,-31.365],[-67.107,-22.736],[-66.273,-21.832],[-64.377,-22.798],[-62.846,-22.035],[-57.777,-25.162],[-58.618,-27.124],[-55.696,-27.388],[-54.13,-25.548],[-53.649,-26.923],[-57.625,-30.216],[-58.495,-34.431],[-56.737,-36.413],[-57.749,-38.184],[-62.336,-38.828],[-62.146,-40.677],[-65.118,-41.064],[-64.979,-42.058],[-63.458,-42.563],[-65.182,-43.495],[-65.565,-45.037],[-67.294,-45.552],[-67.581,-46.302],[-65.641,-47.236],[-69.139,-50.733],[-68.572,-52.299]]]]}},{"type":"Feature","properties":{"ADMIN":"Armenia"},"geometry":{"type":"Polygon","coordinates":[[[43.583,41.092],[45.56,40.812],[46.506,38.771],[43.656,40.254],[43.583,41.092]]]}},{"type":"Feature","properties":{"ADMIN":"Antarctica"},"geometry":{"type":"MultiPolygon","coordinates":[[[[-59.572,-80.04],[-60.16,-81],[-66.29,-80.256],[-59.572,-80.04]]],[[[-159.208,-79.497],[-163.713,-78.596],[-161.245,-78.38],[-159.208,-79.497]]],[[[-45.155,-78.047],[-43.921,-78.478],[-43.333,-80.026],[-54.164,-80.634],[-48.661,-78.047],[-45.155,-78.047]]],[[[-121.212,-73.501],[-118.724,-73.481],[-122.622,-73.658],[-121.212,-73.501]]],[[[-125.56,-73.481],[-124.032,-73.873],[-127.283,-73.462],[-125.56,-73.481]]],[[[-98.982,-71.933],[-96.2,-72.521],[-102.331,-71.894],[-98.982,-71.933]]],[[[-68.451,-70.956],[-68.784,-72.171],[-71.076,-72.504],[-75.013,-71.661],[-72.075,-71.191],[-71.742,-69.506],[-70.253,-68.879],[-68.451,-70.956]]],[[[-58.614,-64.152],[-62.022,-64.799],[-62.12,-66.19],[-65.665,-67.954],[-61.807,-70.717],[-60.827,-73.695],[-70.601,-76.634],[-77.24,-76.713],[-73.656,-77.908],[-77.926,-78.378],[-78.024,-79.182],[-58.222,-83.218],[-49.761,-81.729],[-42.808,-82.082],[-28.55,-80.338],[-29.686,-79.26],[-35.64,-79.456],[-35.777,-78.339],[-17.523,-75.126],[-15.701,-74.499],[-16.465,-73.872],[-15.447,-73.147],[-10.296,-71.265],[-7.417,-71.697],[-6.868,-70.932],[-0.229,-71.638],[7.743,-69.894],[10.818,-70.834],[13.423,-69.972],[27.094,-70.462],[33.87,-68.503],[38.649,-69.776],[54.534,-65.818],[61.428,-67.954],[68.89,-67.934],[69.673,-69.228],[67.813,-70.305],[69.066,-70.678],[67.95,-71.853],[69.869,-72.265],[73.865,-69.874],[77.645,-69.463],[82.776,-67.209],[86.752,-67.15],[87.986,-66.21],[89.671,-67.15],[95.781,-67.386],[99.718,-67.249],[102.832,-65.563],[106.182,-66.935],[113.605,-65.877],[119.833,-67.268],[134.757,-66.21],[135.071,-65.309],[137.46,-66.955],[145.49,-66.915],[148.84,-68.385],[154.285,-68.561],[161.57,-70.58],[171.207,-71.697],[169.287,-73.656],[166.095,-74.381],[163.568,-76.243],[164.743,-78.183],[166.996,-78.751],[161.766,-79.162],[159.788,-80.945],[169.405,-83.826],[180,-84.713],[180,-90],[-180,-90],[-180,-84.713],[-179.059,-84.139],[-169.951,-83.885],[-158.071,-85.374],[-143.108,-85.041],[-153.586,-83.689],[-152.862,-82.043],[-156.837,-81.102],[-150.648,-81.337],[-146.418,-80.338],[-155.329,-79.064],[-158.052,-78.026],[-158.365,-76.889],[-151.334,-77.399],[-146.104,-76.478],[-146.202,-75.38],[-135.215,-74.303],[-121.074,-74.518],[-113.944,-73.715],[-112.299,-74.714],[-107.559,-75.184],[-100.117,-74.871],[-102.545,-74.107],[-103.681,-72.618],[-96.337,-73.617],[-90.089,-73.323],[-89.227,-72.559],[-74.89,-73.872],[-67.369,-72.48],[-68.544,-69.717],[-67.741,-67.327],[-63.001,-64.642],[-57.224,-63.525],[-58.614,-64.152]]]]}},{"type":"Feature","properties":{"ADMIN":"French Southern and Antarctic Lands"},"geometry":{"type":"Polygon","coordinates":[[[68.935,-48.625],[70.56,-49.255],[68.745,-49.775],[68.935,-48.625]]]}},{"type":"Feature","properties":{"ADMIN":"Australia"},"geometry":{"type":"MultiPolygon","coordinates":[[[[145.398,-40.793],[148.289,-40.875],[147.914,-43.212],[146.048,-43.55],[144.718,-41.163],[145.398,-40.793]]],[[[143.562,-13.764],[145.375,-14.985],[146.387,-18.958],[148.848,-20.391],[153.136,-26.071],[152.892,-31.64],[149.997,-37.425],[146.318,-39.036],[145.032,-37.896],[143.61,-38.809],[140.639,-38.019],[139.574,-36.138],[138.121,-35.612],[138.208,-34.385],[136.829,-35.261],[137.81,-32.9],[135.989,-34.89],[134.274,-32.617],[131.326,-31.496],[126.149,-32.216],[123.66,-33.89],[119.894,-33.976],[118.025,-35.065],[115.027,-34.197],[115.69,-31.612],[113.339,-26.117],[114.233,-26.298],[113.394,-24.385],[114.15,-21.756],[114.225,-22.517],[116.712,-20.702],[120.856,-19.684],[125.686,-14.231],[127.066,-13.818],[129.621,-14.97],[130.618,-12.536],[132.575,-12.114],[132.357,-11.129],[136.492,-11.857],[135.5,-14.998],[140.215,-17.711],[142.515,-10.668],[143.562,-13.764]]]]}},{"type":"Feature","properties":{"ADMIN":"Austria"},"geometry":{"type":"Polygon","coordinates":[[[16.98,48.123],[16.012,46.684],[14.632,46.432],[9.48,47.103],[12.933,47.468],[13.596,48.877],[16.98,48.123]]]}},{"type":"Feature","properties":{"ADMIN":"Azerbaijan"},"geometry":{"type":"MultiPolygon","coordinates":[[[[46.506,38.771],[45.217,41.411],[48.584,41.809],[50.393,40.257],[49.569,40.176],[48.883,38.32],[48.06,39.582],[46.506,38.771]]]]}},{"type":"Feature","properties":{"ADMIN":"Burundi"},"geometry":{"type":"Polygon","coordinates":[[[29.34,-4.5],[29.025,-2.839],[30.47,-2.414],[30.752,-3.359],[29.34,-4.5]]]}},{"type":"Feature","properties":{"ADMIN":"Belgium"},"geometry":{"type":"Polygon","coordinates":[[[4.047,51.267],[6.157,50.804],[5.674,49.529],[2.514,51.149],[4.047,51.267]]]}},{"type":"Feature","properties":{"ADMIN":"Benin"},"geometry":{"type":"Polygon","coordinates":[[[2.692,6.259],[1.865,6.142],[0.772,10.471],[2.849,12.236],[3.797,10.735],[2.692,6.259]]]}},{"type":"Feature","properties":{"ADMIN":"Burkina Faso"},"geometry":{"type":"Polygon","coordinates":[[[2.154,11.94],[0.9,10.997],[-2.94,10.963],[-2.827,9.642],[-5.404,10.371],[-4.28,13.228],[-0.516,15.116],[2.154,11.94]]]}},{"type":"Feature","properties":{"ADMIN":"Bangladesh"},"geometry":{"type":"Polygon","coordinates":[[[92.673,22.041],[92.369,20.671],[91.417,22.765],[89.032,22.056],[88.084,24.502],[88.932,25.239],[88.563,26.447],[89.921,25.27],[92.376,24.977],[91.159,23.504],[92.146,23.627],[92.673,22.041]]]}},{"type":"Feature","properties":{"ADMIN":"Bulgaria"},"geometry":{"type":"Polygon","coordinates":[[[22.657,44.235],[28.558,43.707],[27.997,42.007],[22.952,41.338],[22.657,44.235]]]}},{"type":"Feature","properties":{"ADMIN":"The Bahamas"},"geometry":{"type":"MultiPolygon","coordinates":[[[[-77,26.59],[-77.173,25.879],[-77.79,27.04],[-77,26.59]]]]}},{"type":"Feature","properties":{"ADMIN":"Bosnia and Herzegovina"},"geometry":{"type":"Polygon","coordinates":[[[19.368,44.863],[18.56,42.65],[15.75,44.819],[19.368,44.863]]]}},{"type":"Feature","properties":{"ADMIN":"Belarus"},"geometry":{"type":"Polygon","coordinates":[[[23.484,53.912],[28.177,56.169],[30.874,55.551],[32.694,53.351],[31.305,53.074],[31.786,52.102],[30.555,51.32],[23.527,51.578],[23.484,53.912]]]}},{"type":"Feature","properties":{"ADMIN":"Belize"},"geometry":{"type":"Polygon","coordinates":[[[-89.143,17.808],[-88.107,18.349],[-88.931,15.887],[-89.143,17.808]]]}},{"type":"Feature","properties":{"ADMIN":"Bolivia"},"geometry":{"type":"Polygon","coordinates":[[[-62.685,-22.249],[-63.987,-21.994],[-64.377,-22.798],[-66.273,-21.832],[-67.828,-22.873],[-69.59,-17.58],[-68.665,-12.561],[-69.53,-10.952],[-65.338,-9.762],[-65.402,-11.566],[-60.503,-13.776],[-60.158,-16.258],[-58.241,-16.3],[-57.854,-19.97],[-61.786,-19.634],[-62.685,-22.249]]]}},{"type":"Feature","properties":{"ADMIN":"Brazil"},"geometry":{"type":"Polygon","coordinates":[[[-57.625,-30.216],[-53.628,-26.125],[-54.625,-25.739],[-54.293,-24.021],[-55.401,-23.957],[-55.798,-22.357],[-57.937,-22.09],[-57.498,-18.174],[-58.241,-16.3],[-60.158,-16.258],[-60.503,-13.776],[-65.402,-11.566],[-65.338,-9.762],[-70.549,-11.009],[-70.482,-9.49],[-72.185,-10.054],[-73.987,-7.524],[-72.892,-5.275],[-69.894,-4.298],[-70.016,0.541],[-69.219,0.986],[-69.817,1.715],[-67.538,2.037],[-65.548,0.789],[-63.369,2.201],[-64.816,4.056],[-63.093,3.771],[-60.214,5.244],[-59.031,1.318],[-55.996,1.818],[-55.973,2.51],[-52.94,2.125],[-51.317,4.203],[-49.974,1.736],[-50.388,-0.078],[-48.621,-0.235],[-48.584,-1.238],[-47.825,-0.582],[-44.906,-1.552],[-44.582,-2.691],[-39.979,-2.873],[-35.598,-5.15],[-34.73,-7.343],[-35.128,-8.996],[-38.674,-13.058],[-39.267,-17.868],[-40.945,-21.937],[-47.649,-24.885],[-48.888,-28.674],[-53.374,-33.768],[-53.788,-32.047],[-57.625,-30.216]]]}},{"type":"Feature","properties":{"ADMIN":"Brunei"},"geometry":{"type":"Polygon","coordinates":[[[114.204,4.526],[115.451,5.448],[115.347,4.317],[114.204,4.526]]]}},{"type":"Feature","properties":{"ADMIN":"Bhutan"},"geometry":{"type":"Polygon","coordinates":[[[91.697,27.772],[92.033,26.838],[88.836,27.099],[90.016,28.296],[91.697,27.772]]]}},{"type":"Feature","properties":{"ADMIN":"Botswana"},"geometry":{"type":"Polygon","coordinates":[[[29.432,-22.091],[25.665,-25.487],[23.312,-25.269],[21.606,-26.727],[20.89,-26.829],[19.896,-24.768],[20.911,-18.252],[25.264,-17.737],[28.021,-21.486],[29.432,-22.091]]]}},{"type":"Feature","properties":{"ADMIN":"Central African Republic"},"geometry":{"type":"Polygon","coordinates":[[[15.279,7.422],[17.965,7.891],[22.864,11.142],[23.459,8.954],[27.374,5.234],[22.405,4.029],[19.468,5.032],[16.013,2.268],[14.478,4.733],[15.279,7.422]]]}},{"type":"Feature","properties":{"ADMIN":"Canada"},"geometry":{"type":"MultiPolygon","coordinates":[[[[-63.664,46.55],[-62.012,46.443],[-64.393,46.727],[-63.664,46.55]]],[[[-123.51,48.51],[-125.655,48.825],[-128.358,50.771],[-125.755,50.295],[-123.51,48.51]]],[[[-56.134,50.687],[-56.796,49.812],[-53.477,49.249],[-53.069,46.655],[-54.179,46.807],[-54.24,47.752],[-55.401,46.885],[-59.266,47.603],[-57.359,50.718],[-55.407,51.588],[-56.134,50.687]]],[[[-133.18,54.17],[-131.75,54.12],[-132.049,52.985],[-131.179,52.18],[-133.18,54.17]]],[[[-85.161,65.657],[-80.103,63.726],[-87.222,63.541],[-85.161,65.657]]],[[[-75.866,67.149],[-77.236,67.588],[-75.114,68.01],[-75.866,67.149]]],[[[-95.648,69.108],[-99.797,69.4],[-98.218,70.144],[-95.648,69.108]]],[[[-68.234,47.355],[-69.237,47.448],[-71.505,45.008],[-74.867,45],[-82.69,41.675],[-82.551,45.348],[-88.378,48.303],[-91.64,48.14],[-94.818,49.389],[-122.974,49.003],[-127.436,50.831],[-127.85,52.33],[-130.515,54.288],[-130.008,55.916],[-135.476,59.788],[-137.452,58.905],[-140.998,60.306],[-140.986,69.712],[-136.504,68.898],[-128.138,70.484],[-125.756,69.481],[-124.425,70.158],[-124.29,69.4],[-115.247,68.906],[-113.898,68.399],[-115.305,67.903],[-113.497,67.688],[-108.88,67.381],[-107.792,67.887],[-108.813,68.312],[-108.167,68.654],[-106.15,68.8],[-101.454,67.647],[-97.669,68.579],[-96.12,68.239],[-96.126,67.293],[-94.233,69.069],[-96.471,70.09],[-95.209,71.921],[-92.878,71.319],[-91.52,70.191],[-92.407,69.7],[-90.547,69.498],[-90.552,68.475],[-89.215,69.259],[-88.02,68.615],[-87.35,67.199],[-85.522,69.882],[-82.623,69.658],[-81.28,69.162],[-81.964,68.133],[-81.387,67.111],[-85.769,66.558],[-87.323,64.776],[-90.704,63.61],[-94.242,60.899],[-94.685,58.949],[-93.215,58.782],[-92.297,57.087],[-82.273,55.148],[-82.125,53.277],[-79.913,51.208],[-78.602,52.562],[-79.83,54.668],[-76.541,56.534],[-78.517,58.805],[-77.337,59.853],[-78.107,62.32],[-73.84,62.444],[-69.59,61.061],[-69.288,58.957],[-67.65,58.212],[-64.584,60.336],[-61.397,56.967],[-61.799,56.339],[-55.756,53.27],[-55.683,52.147],[-60.033,50.243],[-66.399,50.229],[-71.105,46.822],[-65.056,49.233],[-64.171,48.742],[-65.115,48.071],[-64.472,46.238],[-61.521,45.884],[-60.518,47.008],[-59.803,45.92],[-61.04,45.265],[-66.123,43.619],[-66.162,44.465],[-64.425,45.292],[-67.137,45.138],[-68.234,47.355]]],[[[-114.167,73.121],[-114.666,72.653],[-109.92,72.961],[-108.188,71.651],[-108.396,73.09],[-106.523,73.076],[-104.465,70.993],[-101.089,69.584],[-102.731,69.504],[-102.43,68.753],[-113.313,68.536],[-117.34,69.96],[-112.416,70.366],[-117.905,70.541],[-118.432,70.909],[-116.113,71.309],[-119.402,71.559],[-117.866,72.706],[-114.167,73.121]]],[[[-104.5,73.42],[-105.38,72.76],[-106.94,73.46],[-104.5,73.42]]],[[[-86.562,73.157],[-85.774,72.534],[-82.316,73.751],[-80.749,72.062],[-77.825,72.75],[-74.099,71.331],[-72.242,71.557],[-66.969,69.186],[-68.805,68.72],[-61.852,66.862],[-63.918,64.999],[-68.015,66.263],[-64.669,63.393],[-65.014,62.674],[-68.783,63.746],[-66.166,61.931],[-74.834,64.679],[-77.71,64.23],[-78.556,64.573],[-77.897,65.309],[-73.96,65.455],[-72.926,67.727],[-78.957,70.167],[-84.945,69.967],[-89.888,71.223],[-89.437,73.129],[-85.826,73.804],[-86.562,73.157]]],[[[-100.356,73.844],[-97.38,73.76],[-98.054,72.991],[-96.54,72.56],[-96.72,71.66],[-99.323,71.356],[-102.5,72.51],[-100.438,72.706],[-101.54,73.36],[-100.356,73.844]]],[[[-93.196,72.772],[-95.41,72.062],[-96.018,73.437],[-90.51,73.857],[-93.196,72.772]]],[[[-120.46,71.384],[-123.092,70.902],[-125.929,71.869],[-123.94,73.68],[-124.918,74.293],[-115.511,73.475],[-120.46,71.384]]],[[[-93.613,74.98],[-96.821,74.928],[-94.851,75.647],[-93.613,74.98]]],[[[-98.5,76.72],[-97.736,76.257],[-98.16,75],[-102.502,75.564],[-102.566,76.337],[-98.5,76.72]]],[[[-108.211,76.202],[-105.705,75.48],[-112.223,74.417],[-113.871,74.72],[-111.794,75.163],[-117.71,75.222],[-115.405,76.479],[-109.067,75.473],[-110.497,76.43],[-108.211,76.202]]],[[[-94.684,77.098],[-89.187,75.61],[-81.129,75.714],[-79.834,74.923],[-89.765,74.516],[-97.121,76.751],[-94.684,77.098]]],[[[-116.199,77.645],[-117.106,76.53],[-122.855,76.117],[-116.199,77.645]]],[[[-95.83,78.057],[-98.124,78.083],[-98.632,78.872],[-95.83,78.057]]],[[[-100.06,78.325],[-105.176,78.38],[-104.21,78.677],[-105.492,79.302],[-100.06,78.325]]],[[[-87.02,79.66],[-85.814,79.337],[-90.804,78.215],[-96.71,80.158],[-92.41,81.257],[-87.02,79.66]]],[[[-68.5,83.106],[-61.85,82.629],[-67.658,81.501],[-65.48,81.507],[-71.18,79.8],[-76.908,79.323],[-75.393,78.526],[-79.76,77.21],[-77.889,76.778],[-80.561,76.178],[-89.491,76.472],[-87.767,77.178],[-88.26,77.9],[-84.976,77.539],[-87.962,78.372],[-85.095,79.345],[-86.932,80.251],[-81.848,80.464],[-87.599,80.516],[-91.587,81.894],[-68.5,83.106]]]]}},{"type":"Feature","properties":{"ADMIN":"Switzerland"},"geometry":{"type":"Polygon","coordinates":[[[9.594,47.525],[10.363,46.484],[6.023,46.273],[6.737,47.542],[9.594,47.525]]]}},{"type":"Feature","properties":{"ADMIN":"Chile"},"geometry":{"type":"MultiPolygon","coordinates":[[[[-68.634,-52.636],[-68.633,-54.869],[-66.96,-54.897],[-68.149,-55.612],[-71.006,-55.054],[-74.663,-52.837],[-71.108,-54.074],[-68.634,-52.636]]],[[[-67.107,-22.736],[-70.535,-31.365],[-69.817,-34.194],[-72.149,-42.255],[-71.223,-44.784],[-73.415,-49.318],[-71.915,-52.009],[-68.572,-52.299],[-71.43,-53.856],[-74.947,-52.263],[-75.608,-48.674],[-74.127,-46.939],[-75.644,-46.648],[-74.352,-44.103],[-73.24,-44.455],[-72.718,-42.383],[-74.332,-43.225],[-73.218,-39.259],[-73.588,-37.156],[-71.438,-32.419],[-70.373,-18.348],[-69.59,-17.58],[-67.828,-22.873],[-67.107,-22.736]]]]}},{"type":"Feature","properties":{"ADMIN":"China"},"geometry":{"type":"MultiPolygon","coordinates":[[[[75.158,37.133],[73.822,39.894],[80.119,42.124],[80.866,43.18],[79.966,44.918],[82.459,45.54],[83.18,47.33],[85.164,47.001],[85.768,48.456],[87.751,49.297],[90.971,46.888],[90.946,45.286],[95.307,44.241],[96.349,42.726],[104.965,41.597],[110.412,42.871],[111.83,43.743],[111.873,45.102],[113.464,44.809],[117.422,46.673],[119.663,46.693],[118.064,48.067],[115.485,48.135],[116.679,49.889],[119.288,50.143],[121.003,53.251],[125.946,52.793],[127.657,49.76],[129.398,49.441],[130.987,47.79],[135.026,48.478],[133.097,45.144],[131.025,44.968],[130.64,42.395],[129.994,42.985],[128.208,41.467],[126.869,41.817],[121.055,38.897],[122.169,40.422],[121.64,40.946],[117.533,38.738],[119.703,37.156],[122.358,37.454],[119.151,34.91],[121.908,31.692],[121.684,28.226],[118.657,24.547],[115.891,22.783],[110.785,21.397],[110.444,20.341],[109.864,21.395],[107.043,21.812],[105.329,23.352],[101.652,22.318],[101.803,21.174],[99.241,22.118],[98.66,24.063],[97.605,23.897],[98.683,27.509],[96.249,28.411],[96.118,29.453],[92.503,27.897],[90.016,28.296],[88.814,27.299],[88.73,28.087],[85.823,28.204],[81.111,30.183],[78.739,31.516],[78.912,34.322],[75.158,37.133]]],[[[110.339,18.678],[108.655,18.508],[108.626,19.368],[110.787,20.078],[110.339,18.678]]]]}},{"type":"Feature","properties":{"ADMIN":"Ivory Coast"},"geometry":{"type":"Polygon","coordinates":[[[-5.404,10.371],[-2.827,9.642],[-2.856,4.994],[-7.712,4.365],[-7.57,5.707],[-8.603,6.468],[-8.229,10.129],[-5.404,10.371]]]}},{"type":"Feature","properties":{"ADMIN":"Cameroon"},"geometry":{"type":"Polygon","coordinates":[[[15.279,7.422],[14.478,4.733],[15.941,1.728],[9.649,2.284],[8.758,5.48],[10.118,7.039],[11.746,6.981],[14.496,12.859],[15.468,9.982],[13.954,9.549],[15.279,7.422]]]}},{"type":"Feature","properties":{"ADMIN":"Democratic Republic of the Congo"},"geometry":{"type":"Polygon","coordinates":[[[23.912,-10.927],[22.155,-11.085],[21.728,-7.291],[20.092,-6.943],[17.473,-8.069],[16.327,-5.877],[12.182,-5.79],[16.006,-3.535],[19.468,5.032],[22.405,4.029],[25.65,5.256],[29.716,4.601],[31.174,2.204],[29.025,-2.839],[30.74,-8.34],[28.45,-9.165],[28.372,-11.794],[29.616,-12.179],[29.7,-13.257],[23.912,-10.927]]]}},{"type":"Feature","properties":{"ADMIN":"Republic of the Congo"},"geometry":{"type":"Polygon","coordinates":[[[12.996,-4.781],[11.915,-5.038],[11.094,-3.979],[12.575,-1.949],[14.299,-1.998],[14.276,1.197],[13.076,2.267],[15.941,1.728],[17.133,3.728],[18.453,3.504],[16.006,-3.535],[14.583,-4.97],[12.996,-4.781]]]}},{"type":"Feature","properties":{"ADMIN":"Colombia"},"geometry":{"type":"Polygon","coordinates":[[[-66.876,1.253],[-67.538,2.037],[-69.817,1.715],[-69.219,0.986],[-70.016,0.541],[-69.894,-4.298],[-70.693,-3.743],[-70.048,-2.725],[-73.07,-2.309],[-75.107,-0.057],[-77.425,0.396],[-78.991,1.691],[-77.128,3.85],[-77.475,8.524],[-75.675,9.443],[-74.907,11.083],[-71.4,12.376],[-73.305,9.152],[-71.96,6.992],[-67.341,6.095],[-67.81,2.821],[-66.876,1.253]]]}},{"type":"Feature","properties":{"ADMIN":"Costa Rica"},"geometry":{"type":"Polygon","coordinates":[[[-82.966,8.225],[-85.942,10.895],[-83.656,10.939],[-82.546,9.566],[-82.966,8.225]]]}},{"type":"Feature","properties":{"ADMIN":"Cuba"},"geometry":{"type":"Polygon","coordinates":[[[-82.268,23.189],[-78.347,22.512],[-74.178,20.285],[-77.755,19.855],[-77.085,20.413],[-78.72,21.598],[-81.795,22.637],[-84.975,21.896],[-82.268,23.189]]]}},{"type":"Feature","properties":{"ADMIN":"Czechia"},"geometry":{"type":"Polygon","coordinates":[[[16.96,48.597],[14.339,48.555],[12.24,50.266],[15.017,51.107],[18.853,49.496],[16.96,48.597]]]}},{"type":"Feature","properties":{"ADMIN":"Germany"},"geometry":{"type":"Polygon","coordinates":[[[13.596,48.877],[12.933,47.468],[7.467,47.621],[8.099,49.018],[6.186,49.464],[5.989,51.852],[7.1,53.694],[8.801,54.021],[8.526,54.963],[13.647,54.076],[15.017,51.107],[12.24,50.266],[13.596,48.877]]]}},{"type":"Feature","properties":{"ADMIN":"Djibouti"},"geometry":{"type":"Polygon","coordinates":[[[43.081,12.7],[42.777,10.927],[41.756,11.051],[43.081,12.7]]]}},{"type":"Feature","properties":{"ADMIN":"Denmark"},"geometry":{"type":"MultiPolygon","coordinates":[[[[9.922,54.983],[8.526,54.963],[8.09,56.54],[10.58,57.73],[10.912,56.459],[9.922,54.983]]],[[[12.69,55.61],[12.09,54.8],[10.904,55.78],[12.69,55.61]]]]}},{"type":"Feature","properties":{"ADMIN":"Dominican Republic"},"geometry":{"type":"Polygon","coordinates":[[[-71.712,19.714],[-68.318,18.612],[-71.4,17.599],[-71.712,19.714]]]}},{"type":"Feature","properties":{"ADMIN":"Algeria"},"geometry":{"type":"Polygon","coordinates":[[[4.267,19.155],[3.158,19.057],[-8.684,27.396],[-8.674,28.841],[-1.308,32.263],[-2.17,35.168],[-1.209,35.715],[8.421,36.946],[7.524,34.097],[9.806,29.425],[9.319,26.094],[12,23.472],[4.267,19.155]]]}},{"type":"Feature","properties":{"ADMIN":"Ecuador"},"geometry":{"type":"Polygon","coordinates":[[[-78.855,1.381],[-75.234,-0.911],[-79.205,-4.959],[-80.442,-4.426],[-79.77,-2.658],[-80.968,-2.247],[-80.934,-1.057],[-78.855,1.381]]]}},{"type":"Feature","properties":{"ADMIN":"Egypt"},"geometry":{"type":"Polygon","coordinates":[[[36.866,22],[25,22],[25.165,31.569],[34.265,31.219],[34.923,29.501],[34.155,27.823],[32.32,29.76],[36.866,22]]]}},{"type":"Feature","properties":{"ADMIN":"Eritrea"},"geometry":{"type":"Polygon","coordinates":[[[43.081,12.7],[40.026,14.52],[36.43,14.422],[36.853,16.957],[38.41,17.998],[39.266,15.923],[43.081,12.7]]]}},{"type":"Feature","properties":{"ADMIN":"Spain"},"geometry":{"type":"Polygon","coordinates":[[[-9.035,41.881],[-9.393,43.027],[-7.978,43.748],[-1.901,43.423],[3.039,41.892],[0.811,41.015],[-0.683,37.642],[-5.377,35.947],[-7.537,37.429],[-6.669,41.883],[-9.035,41.881]]]}},{"type":"Feature","properties":{"ADMIN":"Estonia"},"geometry":{"type":"Polygon","coordinates":[[[24.313,57.793],[23.34,59.187],[28.132,59.301],[27.288,57.475],[24.313,57.793]]]}},{"type":"Feature","properties":{"ADMIN":"Ethiopia"},"geometry":{"type":"Polygon","coordinates":[[[42.352,12.542],[41.756,11.051],[42.777,10.927],[43.679,9.184],[47.789,8.003],[44.964,5.002],[38.121,3.599],[32.954,7.785],[36.43,14.422],[40.026,14.52],[42.352,12.542]]]}},{"type":"Feature","properties":{"ADMIN":"Finland"},"geometry":{"type":"Polygon","coordinates":[[[23.903,66.007],[23.539,67.936],[20.646,69.106],[24.736,68.65],[26.18,69.825],[29.016,69.766],[28.446,68.365],[29.977,67.698],[29.055,66.944],[30.218,65.806],[29.544,64.949],[30.445,64.204],[30.036,63.553],[31.516,62.868],[28.07,60.504],[22.87,59.846],[21.322,60.72],[21.059,62.607],[25.398,65.111],[23.903,66.007]]]}},{"type":"Feature","properties":{"ADMIN":"Fiji"},"geometry":{"type":"MultiPolygon","coordinates":[[[[178.374,-17.34],[178.553,-18.151],[177.381,-18.164],[178.374,-17.34]]],[[[179.364,-16.801],[178.597,-16.639],[180,-16.067],[179.364,-16.801]]]]}},{"type":"Feature","properties":{"ADMIN":"France"},"geometry":{"type":"MultiPolygon","coordinates":[[[[2.514,51.149],[8.099,49.018],[6.037,46.726],[7.435,43.694],[1.827,42.343],[-1.503,43.034],[-1.194,46.015],[-4.592,48.684],[-1.617,48.644],[-1.933,49.776],[-0.989,49.347],[2.514,51.149]]],[[[-51.658,4.156],[-52.94,2.125],[-54.525,2.312],[-53.958,5.757],[-51.658,4.156]]],[[[9.56,42.152],[9.23,41.38],[8.544,42.257],[9.39,43.01],[9.56,42.152]]]]}},{"type":"Feature","properties":{"ADMIN":"Gabon"},"geometry":{"type":"Polygon","coordinates":[[[11.276,2.261],[12.951,2.322],[14.276,1.197],[14.425,-1.333],[13.992,-2.471],[12.575,-1.949],[11.478,-2.766],[11.094,-3.979],[8.798,-1.111],[9.493,1.01],[11.285,1.058],[11.276,2.261]]]}},{"type":"Feature","properties":{"ADMIN":"United Kingdom"},"geometry":{"type":"MultiPolygon","coordinates":[[[[-6.198,53.868],[-7.572,54.06],[-7.572,55.132],[-5.662,54.555],[-6.198,53.868]]],[[[-3.005,58.635],[-4.074,57.553],[-1.959,57.685],[-3.119,55.974],[1.682,52.74],[1.45,51.289],[-5.245,49.96],[-3.415,51.426],[-5.267,51.991],[-4.222,52.301],[-4.58,53.495],[-2.945,53.985],[-4.844,54.791],[-5.048,55.784],[-5.586,55.311],[-6.15,56.785],[-5.01,58.63],[-3.005,58.635]]]]}},{"type":"Feature","properties":{"ADMIN":"Georgia"},"geometry":{"type":"Polygon","coordinates":[[[44.972,41.248],[41.554,41.536],[41.453,42.645],[39.955,43.435],[45.47,42.503],[46.638,41.182],[44.972,41.248]]]}},{"type":"Feature","properties":{"ADMIN":"Ghana"},"geometry":{"type":"Polygon","coordinates":[[[-2.827,9.642],[-2.94,10.963],[0.024,11.019],[1.06,5.929],[-2.856,4.994],[-2.827,9.642]]]}},{"type":"Feature","properties":{"ADMIN":"Guinea"},"geometry":{"type":"Polygon","coordinates":[[[-8.03,10.207],[-7.832,8.576],[-9.209,7.314],[-11.117,10.046],[-13.247,8.903],[-15.13,11.04],[-13.7,12.586],[-9.328,12.334],[-8.03,10.207]]]}},{"type":"Feature","properties":{"ADMIN":"Guinea-Bissau"},"geometry":{"type":"Polygon","coordinates":[[[-13.7,12.586],[-15.13,11.04],[-16.677,12.385],[-13.7,12.586]]]}},{"type":"Feature","properties":{"ADMIN":"Equatorial Guinea"},"geometry":{"type":"Polygon","coordinates":[[[9.649,2.284],[11.276,2.261],[11.285,1.058],[9.493,1.01],[9.649,2.284]]]}},{"type":"Feature","properties":{"ADMIN":"Greece"},"geometry":{"type":"MultiPolygon","coordinates":[[[[20.15,39.625],[21.02,40.843],[26.604,41.562],[23.715,40.687],[24.408,40.125],[22.626,40.257],[24.025,38.22],[22.775,37.305],[23.154,36.423],[21.67,36.845],[20.15,39.625]]],[[[23.7,35.705],[26.29,35.3],[24.725,34.92],[23.7,35.705]]]]}},{"type":"Feature","properties":{"ADMIN":"Greenland"},"geometry":{"type":"Polygon","coordinates":[[[-46.764,82.628],[-27.1,83.52],[-20.845,82.727],[-31.9,82.2],[-22.072,81.734],[-23.17,81.153],[-15.768,81.912],[-12.209,81.292],[-20.046,80.177],[-17.73,80.129],[-19.705,78.751],[-19.674,77.639],[-18.473,76.986],[-21.679,76.628],[-19.834,76.098],[-19.599,75.248],[-20.668,75.156],[-19.373,74.296],[-23.566,73.307],[-22.3,72.184],[-24.793,72.33],[-21.754,70.664],[-25.543,71.431],[-25.201,70.752],[-26.363,70.226],[-22.349,70.129],[-39.812,65.458],[-42.819,62.682],[-43.378,60.098],[-48.263,60.858],[-51.633,63.627],[-53.969,67.189],[-50.871,69.929],[-54.683,69.61],[-54.359,70.821],[-51.39,70.57],[-55.835,71.654],[-54.718,72.586],[-58.585,75.517],[-68.504,76.061],[-71.403,77.009],[-66.764,77.376],[-73.297,78.044],[-65.711,79.394],[-68.023,80.117],[-62.234,81.321],[-62.651,81.77],[-50.391,82.439],[-44.523,81.661],[-46.764,82.628]]]}},{"type":"Feature","properties":{"ADMIN":"Guatemala"},"geometry":{"type":"Polygon","coordinates":[[[-89.143,17.808],[-89.229,15.887],[-88.225,15.728],[-89.353,14.424],[-90.096,13.735],[-92.228,14.539],[-91.748,16.067],[-90.464,16.07],[-91.002,17.818],[-89.143,17.808]]]}},{"type":"Feature","properties":{"ADMIN":"Guyana"},"geometry":{"type":"Polygon","coordinates":[[[-56.539,1.9],[-59.646,1.787],[-59.981,5.014],[-61.41,5.959],[-59.758,8.367],[-57.147,5.973],[-58.045,4.061],[-56.539,1.9]]]}},{"type":"Feature","properties":{"ADMIN":"Honduras"},"geometry":{"type":"Polygon","coordinates":[[[-89.353,14.424],[-87.902,15.864],[-84.984,15.996],[-83.147,14.996],[-87.317,12.985],[-89.353,14.424]]]}},{"type":"Feature","properties":{"ADMIN":"Croatia"},"geometry":{"type":"Polygon","coordinates":[[[19.005,44.86],[15.75,44.819],[18.45,42.48],[13.679,45.484],[16.565,46.504],[18.83,45.909],[19.005,44.86]]]}},{"type":"Feature","properties":{"ADMIN":"Haiti"},"geometry":{"type":"Polygon","coordinates":[[[-71.712,19.714],[-71.708,18.045],[-74.458,18.343],[-72.335,18.668],[-73.19,19.916],[-71.712,19.714]]]}},{"type":"Feature","properties":{"ADMIN":"Hungary"},"geometry":{"type":"Polygon","coordinates":[[[16.202,46.852],[16.98,48.123],[20.801,48.624],[22.711,47.882],[21.022,46.316],[18.456,45.759],[16.202,46.852]]]}},{"type":"Feature","properties":{"ADMIN":"Indonesia"},"geometry":{"type":"MultiPolygon","coordinates":[[[[117.9,-8.096],[119.127,-8.706],[116.74,-9.033],[117.9,-8.096]]],[[[108.623,-6.778],[110.76,-6.465],[115.706,-8.371],[105.365,-6.851],[106.052,-5.896],[108.623,-6.778]]],[[[134.725,-6.214],[134.21,-6.895],[134.5,-5.445],[134.725,-6.214]]],[[[130.471,-3.094],[130.835,-3.858],[127.899,-3.393],[130.471,-3.094]]],[[[141,-2.6],[141.034,-9.118],[140.143,-8.297],[137.614,-8.412],[138.669,-7.32],[137.928,-5.393],[133.663,-3.539],[132.984,-4.113],[131.99,-2.821],[133.696,-2.215],[130.52,-0.938],[133.986,-0.78],[134.423,-2.769],[135.458,-3.368],[137.441,-1.704],[141,-2.6]]],[[[125.241,1.42],[123.686,0.236],[120.183,0.237],[120.936,-1.409],[123.341,-0.616],[121.508,-1.904],[123.162,-5.341],[122.236,-5.283],[122.72,-4.464],[121.489,-4.575],[120.972,-2.628],[120.431,-5.528],[119.367,-5.38],[118.768,-2.802],[120.036,0.566],[125.241,1.42]]],[[[128.688,1.132],[128.1,-0.9],[127.932,2.175],[128.688,1.132]]],[[[109.663,2.006],[110.514,0.773],[114.621,1.431],[115.866,4.307],[117.015,4.306],[117.882,4.138],[117.313,3.234],[118.997,0.902],[117.812,0.784],[116.148,-4.013],[114.865,-4.107],[110.224,-2.934],[108.953,0.415],[109.663,2.006]]],[[[105.818,-5.852],[102.584,-4.22],[95.293,5.48],[97.485,5.246],[103.838,0.105],[103.438,-0.712],[106.109,-3.062],[105.818,-5.852]]]]}},{"type":"Feature","properties":{"ADMIN":"India"},"geometry":{"type":"Polygon","coordinates":[[[92.673,22.041],[92.146,23.627],[91.159,23.504],[92.376,24.977],[89.921,25.27],[88.563,26.447],[88.932,25.239],[88.084,24.502],[88.889,21.691],[86.976,21.496],[86.499,20.152],[80.325,15.899],[79.858,10.357],[77.54,7.966],[73.534,15.991],[72.631,21.356],[70.47,20.877],[68.177,23.692],[71.043,24.357],[69.514,26.941],[71.778,27.913],[75.259,32.271],[73.75,34.318],[77.837,35.494],[78.912,34.322],[78.739,31.516],[81.111,30.183],[80.088,28.794],[83.304,27.365],[88.06,26.415],[88.73,28.087],[89.745,26.719],[92.033,26.838],[91.697,27.772],[96.118,29.453],[96.249,28.411],[97.327,28.262],[97.134,27.084],[95.125,26.574],[92.673,22.041]]]}},{"type":"Feature","properties":{"ADMIN":"Ireland"},"geometry":{"type":"Polygon","coordinates":[[[-7.572,55.132],[-7.572,54.06],[-6.033,53.153],[-6.789,52.26],[-9.977,51.82],[-9.166,52.865],[-9.689,53.881],[-7.572,55.132]]]}},{"type":"Feature","properties":{"ADMIN":"Iran"},"geometry":{"type":"Polygon","coordinates":[[[61.211,35.65],[60.536,32.981],[61.781,30.736],[60.874,29.829],[63.317,26.757],[61.497,25.078],[57.397,25.74],[56.492,27.143],[53.493,26.812],[51.521,27.866],[50.115,30.148],[48.568,29.927],[45.417,33.968],[46.076,35.677],[44.109,39.428],[46.144,38.741],[48.06,39.582],[49.2,37.583],[52.264,36.7],[57.33,38.029],[61.123,36.492],[61.211,35.65]]]}},{"type":"Feature","properties":{"ADMIN":"Iraq"},"geometry":{"type":"Polygon","coordinates":[[[44.773,37.17],[46.076,35.677],[45.417,33.968],[48.568,29.927],[47.303,30.059],[46.569,29.099],[44.709,29.179],[39.195,32.161],[38.792,33.379],[41.006,34.419],[42.35,37.23],[44.773,37.17]]]}},{"type":"Feature","properties":{"ADMIN":"Iceland"},"geometry":{"type":"Polygon","coordinates":[[[-14.509,66.456],[-13.61,65.127],[-18.656,63.496],[-22.763,63.96],[-21.778,64.402],[-23.955,64.891],[-22.227,65.379],[-24.326,65.611],[-22.135,66.41],[-20.576,65.732],[-14.509,66.456]]]}},{"type":"Feature","properties":{"ADMIN":"Israel"},"geometry":{"type":"Polygon","coordinates":[[[34.823,29.761],[34.265,31.219],[35.821,33.277],[34.823,29.761]]]}},{"type":"Feature","properties":{"ADMIN":"Italy"},"geometry":{"type":"MultiPolygon","coordinates":[[[[10.443,46.894],[13.806,46.509],[13.938,45.591],[12.329,45.382],[12.589,44.091],[18.293,39.811],[16.87,40.442],[17.053,38.903],[15.684,37.909],[15.414,40.048],[11.192,42.355],[10.2,43.92],[7.435,43.694],[6.844,45.991],[10.443,46.894]]],[[[15.52,38.231],[15.1,36.62],[12.431,37.613],[15.52,38.231]]],[[[9.21,41.21],[9.67,39.177],[8.807,38.907],[8.16,40.95],[9.21,41.21]]]]}},{"type":"Feature","properties":{"ADMIN":"Jamaica"},"geometry":{"type":"Polygon","coordinates":[[[-77.57,18.491],[-76.2,17.887],[-78.338,18.226],[-77.57,18.491]]]}},{"type":"Feature","properties":{"ADMIN":"Jordan"},"geometry":{"type":"Polygon","coordinates":[[[38.792,33.379],[39.195,32.161],[37.002,31.508],[37.999,30.509],[34.956,29.357],[35.72,32.709],[36.834,32.313],[38.792,33.379]]]}},{"type":"Feature","properties":{"ADMIN":"Japan"},"geometry":{"type":"MultiPolygon","coordinates":[[[[134.638,34.149],[134.203,33.201],[132.363,32.989],[132.924,34.06],[134.638,34.149]]],[[[140.976,37.142],[140.253,35.138],[135.793,33.465],[135.079,34.597],[130.986,33.886],[132,33.15],[131.333,31.45],[130.202,31.418],[129.408,33.296],[132.618,35.433],[135.678,35.527],[136.724,37.305],[137.391,36.827],[139.426,38.216],[139.883,40.563],[141.369,41.379],[141.885,39.181],[140.976,37.142]]],[[[143.91,44.174],[145.321,44.385],[145.543,43.262],[139.955,41.57],[141.968,45.551],[143.91,44.174]]]]}},{"type":"Feature","properties":{"ADMIN":"Kazakhstan"},"geometry":{"type":"Polygon","coordinates":[[[87.36,49.215],[85.164,47.001],[83.18,47.33],[82.459,45.54],[79.966,44.918],[80.866,43.18],[80.26,42.35],[74.213,43.298],[73.49,42.501],[71.186,42.704],[68.632,40.669],[66.714,41.168],[64.901,43.728],[62.013,43.504],[58.503,45.587],[55.929,44.996],[55.968,41.309],[54.079,42.324],[52.502,41.783],[52.501,42.792],[50.306,44.61],[53.041,45.259],[53.043,46.853],[49.101,46.399],[46.466,48.394],[47.549,50.455],[48.578,49.875],[50.767,51.693],[55.717,50.622],[61.337,50.799],[59.968,51.96],[61.7,52.98],[61.437,54.006],[69.068,55.385],[73.426,53.49],[76.891,54.491],[80.036,50.865],[83.383,51.069],[87.36,49.215]]]}},{"type":"Feature","properties":{"ADMIN":"Kenya"},"geometry":{"type":"Polygon","coordinates":[[[35.298,5.506],[38.121,3.599],[41.855,3.919],[40.981,2.785],[41.585,-1.683],[39.202,-4.677],[33.904,-0.95],[35.036,1.906],[34.005,4.25],[35.298,5.506]]]}},{"type":"Feature","properties":{"ADMIN":"Kyrgyzstan"},"geometry":{"type":"Polygon","coordinates":[[[80.26,42.35],[73.675,39.431],[69.465,39.527],[73.055,40.866],[70.42,41.52],[71.186,42.704],[73.49,42.501],[74.213,43.298],[80.26,42.35]]]}},{"type":"Feature","properties":{"ADMIN":"Cambodia"},"geometry":{"type":"Polygon","coordinates":[[[102.585,12.187],[102.988,14.226],[106.044,13.881],[106.496,14.571],[107.615,13.536],[107.491,12.337],[105.811,11.568],[106.25,10.962],[103.497,10.633],[102.585,12.187]]]}},{"type":"Feature","properties":{"ADMIN":"South Korea"},"geometry":{"type":"Polygon","coordinates":[[[128.35,38.612],[129.468,35.632],[126.486,34.39],[126.117,36.725],[126.86,36.894],[126.175,37.75],[128.35,38.612]]]}},{"type":"Feature","properties":{"ADMIN":"Kosovo"},"geometry":{"type":"Polygon","coordinates":[[[20.59,41.855],[20.635,43.217],[21.775,42.683],[20.59,41.855]]]}},{"type":"Feature","properties":{"ADMIN":"Kuwait"},"geometry":{"type":"Polygon","coordinates":[[[46.569,29.099],[47.975,29.976],[48.416,28.552],[46.569,29.099]]]}},{"type":"Feature","properties":{"ADMIN":"Laos"},"geometry":{"type":"Polygon","coordinates":[[[101.18,21.437],[101.803,21.174],[102.17,22.465],[103.204,20.767],[104.435,20.759],[104.823,19.887],[103.897,19.265],[107.313,15.909],[107.383,14.202],[105.219,14.273],[105.589,15.57],[103.956,18.241],[101.06,17.512],[101.282,19.463],[100.116,20.418],[101.18,21.437]]]}},{"type":"Feature","properties":{"ADMIN":"Lebanon"},"geometry":{"type":"Polygon","coordinates":[[[35.821,33.277],[35.126,33.091],[36.448,34.594],[35.821,33.277]]]}},{"type":"Feature","properties":{"ADMIN":"Liberia"},"geometry":{"type":"Polygon","coordinates":[[[-8.439,7.686],[-7.712,4.365],[-11.439,6.786],[-10.23,8.406],[-9.209,7.314],[-8.439,7.686]]]}},{"type":"Feature","properties":{"ADMIN":"Libya"},"geometry":{"type":"Polygon","coordinates":[[[12,23.472],[9.319,26.094],[9.482,30.308],[11.489,33.137],[19.086,30.266],[20.855,32.707],[25.165,31.569],[25,20.003],[23.838,19.58],[15.861,23.41],[14.144,22.491],[12,23.472]]]}},{"type":"Feature","properties":{"ADMIN":"Sri Lanka"},"geometry":{"type":"Polygon","coordinates":[[[81.788,7.523],[80.348,5.968],[80.148,9.824],[81.788,7.523]]]}},{"type":"Feature","properties":{"ADMIN":"Lesotho"},"geometry":{"type":"Polygon","coordinates":[[[28.978,-28.956],[28.107,-30.546],[26.999,-29.876],[28.978,-28.956]]]}},{"type":"Feature","properties":{"ADMIN":"Lithuania"},"geometry":{"type":"Polygon","coordinates":[[[26.494,55.615],[25.536,54.282],[23.484,53.912],[21.056,56.031],[24.861,56.373],[26.494,55.615]]]}},{"type":"Feature","properties":{"ADMIN":"Latvia"},"geometry":{"type":"Polygon","coordinates":[[[28.177,56.169],[21.056,56.031],[21.582,57.412],[24.121,57.026],[25.165,57.97],[27.77,57.244],[28.177,56.169]]]}},{"type":"Feature","properties":{"ADMIN":"Morocco"},"geometry":{"type":"Polygon","coordinates":[[[-2.17,35.168],[-1.308,32.263],[-8.674,28.841],[-8.795,27.121],[-11.393,26.883],[-14.751,21.501],[-17.02,21.422],[-14.44,26.254],[-9.565,29.934],[-8.657,33.24],[-5.93,35.76],[-2.17,35.168]]]}},{"type":"Feature","properties":{"ADMIN":"Moldova"},"geometry":{"type":"Polygon","coordinates":[[[26.619,48.221],[28.671,48.118],[30.025,46.424],[28.234,45.488],[26.619,48.221]]]}},{"type":"Feature","properties":{"ADMIN":"Madagascar"},"geometry":{"type":"Polygon","coordinates":[[[49.544,-12.47],[50.377,-15.706],[49.673,-15.71],[47.096,-24.942],[45.41,-25.601],[44.04,-24.988],[43.346,-22.777],[44.464,-19.435],[43.963,-17.41],[49.544,-12.47]]]}},{"type":"Feature","properties":{"ADMIN":"Mexico"},"geometry":{"type":"Polygon","coordinates":[[[-88.3,18.5],[-91.002,17.818],[-90.464,16.07],[-91.748,16.067],[-92.228,14.539],[-93.875,15.94],[-96.557,15.654],[-103.501,18.292],[-105.493,19.947],[-106.029,22.774],[-112.228,28.954],[-113.149,31.171],[-114.937,31.393],[-109.409,23.365],[-109.854,22.818],[-112.182,24.738],[-112.301,26.012],[-115.055,27.723],[-114.162,28.566],[-117.128,32.535],[-114.721,32.721],[-111.024,31.335],[-106.508,31.755],[-103.94,29.27],[-101.662,29.779],[-99.02,26.37],[-97.14,25.87],[-97.872,22.444],[-95.901,18.828],[-94.426,18.144],[-91.408,18.876],[-90.279,21],[-87.052,21.544],[-88.3,18.5]]]}},{"type":"Feature","properties":{"ADMIN":"Macedonia"},"geometry":{"type":"Polygon","coordinates":[[[21.02,40.843],[20.762,42.052],[22.881,41.999],[21.02,40.843]]]}},{"type":"Feature","properties":{"ADMIN":"Mali"},"geometry":{"type":"Polygon","coordinates":[[[0.375,14.929],[-4.006,13.472],[-6.05,10.096],[-8.03,10.207],[-9.127,12.308],[-11.456,12.077],[-12.171,14.617],[-11.666,15.388],[-5.538,15.502],[-6.454,24.957],[-4.923,24.975],[3.158,19.057],[4.267,19.155],[3.638,15.568],[0.375,14.929]]]}},{"type":"Feature","properties":{"ADMIN":"Myanmar"},"geometry":{"type":"Polygon","coordinates":[[[92.369,20.671],[95.125,26.574],[97.134,27.084],[97.912,28.336],[98.672,25.919],[97.605,23.897],[98.66,24.063],[99.241,22.118],[101.18,21.437],[97.376,18.445],[98.903,16.178],[98.192,15.124],[99.587,11.893],[98.554,9.933],[97.165,16.929],[95.369,15.714],[94.189,16.038],[94.325,18.214],[92.369,20.671]]]}},{"type":"Feature","properties":{"ADMIN":"Montenegro"},"geometry":{"type":"Polygon","coordinates":[[[20.071,42.589],[19.372,41.878],[18.45,42.48],[19.219,43.524],[20.071,42.589]]]}},{"type":"Feature","properties":{"ADMIN":"Mongolia"},"geometry":{"type":"Polygon","coordinates":[[[116.679,49.889],[115.743,47.727],[118.064,48.067],[119.663,46.693],[117.422,46.673],[113.464,44.809],[111.873,45.102],[111.83,43.743],[110.412,42.871],[104.965,41.597],[96.349,42.726],[95.307,44.241],[90.946,45.286],[90.971,46.888],[87.751,49.297],[92.235,50.802],[97.26,49.726],[98.861,52.047],[108.475,49.283],[116.679,49.889]]]}},{"type":"Feature","properties":{"ADMIN":"Mozambique"},"geometry":{"type":"Polygon","coordinates":[[[34.56,-11.52],[37.471,-11.569],[40.317,-10.317],[40.775,-14.692],[39.453,-16.721],[34.786,-19.784],[35.459,-24.123],[32.072,-26.734],[31.191,-22.252],[32.66,-20.304],[32.848,-16.713],[30.339,-15.881],[30.179,-14.796],[33.214,-13.972],[34.46,-14.613],[35.034,-16.801],[35.687,-14.611],[34.56,-13.58],[34.56,-11.52]]]}},{"type":"Feature","properties":{"ADMIN":"Mauritania"},"geometry":{"type":"Polygon","coordinates":[[[-8.684,27.396],[-4.923,24.975],[-6.454,24.957],[-5.538,15.502],[-11.666,15.388],[-12.171,14.617],[-14.577,16.598],[-16.463,16.135],[-16.845,21.333],[-12.929,21.327],[-11.969,25.933],[-8.687,25.881],[-8.684,27.396]]]}},{"type":"Feature","properties":{"ADMIN":"Malawi"},"geometry":{"type":"Polygon","coordinates":[[[34.56,-11.52],[34.56,-13.58],[35.687,-14.611],[35.034,-16.801],[34.46,-14.613],[32.688,-13.713],[33.486,-10.526],[32.759,-9.231],[33.74,-9.417],[34.56,-11.52]]]}},{"type":"Feature","properties":{"ADMIN":"Malaysia"},"geometry":{"type":"MultiPolygon","coordinates":[[[[114.204,4.526],[115.347,4.317],[116.725,6.925],[119.182,5.408],[117.882,4.138],[115.866,4.307],[114.621,1.431],[109.83,1.338],[109.663,2.006],[111.169,1.851],[114.204,4.526]]],[[[102.141,6.222],[103.381,4.855],[104.229,1.293],[100.695,3.939],[100.086,6.464],[101.154,5.691],[102.141,6.222]]]]}},{"type":"Feature","properties":{"ADMIN":"Namibia"},"geometry":{"type":"Polygon","coordinates":[[[11.734,-17.302],[25.077,-17.579],[20.911,-18.252],[20.881,-21.814],[19.895,-21.849],[19.895,-28.461],[18.465,-29.045],[15.602,-27.821],[14.258,-22.111],[11.734,-17.302]]]}},{"type":"Feature","properties":{"ADMIN":"New Caledonia"},"geometry":{"type":"Polygon","coordinates":[[[165.78,-21.08],[167.12,-22.16],[164.03,-20.106],[165.78,-21.08]]]}},{"type":"Feature","properties":{"ADMIN":"Niger"},"geometry":{"type":"Polygon","coordinates":[[[3.611,11.66],[1.024,12.852],[0.296,14.444],[3.638,15.568],[4.267,19.155],[12,23.472],[14.851,22.863],[15.903,20.388],[15.248,16.627],[13.54,14.367],[14.596,13.33],[14.181,12.484],[13.084,13.596],[9.015,12.827],[5.443,13.866],[4.108,13.531],[3.611,11.66]]]}},{"type":"Feature","properties":{"ADMIN":"Nigeria"},"geometry":{"type":"Polygon","coordinates":[[[2.692,6.259],[4.368,13.747],[9.015,12.827],[13.084,13.596],[14.577,12.085],[11.746,6.981],[9.233,6.444],[8.5,4.772],[5.898,4.262],[4.326,6.271],[2.692,6.259]]]}},{"type":"Feature","properties":{"ADMIN":"Nicaragua"},"geometry":{"type":"Polygon","coordinates":[[[-83.656,10.939],[-85.713,11.088],[-87.668,12.91],[-83.147,14.996],[-83.656,10.939]]]}},{"type":"Feature","properties":{"ADMIN":"Netherlands"},"geometry":{"type":"Polygon","coordinates":[[[6.157,50.804],[3.315,51.346],[4.706,53.092],[6.905,53.482],[6.157,50.804]]]}},{"type":"Feature","properties":{"ADMIN":"Norway"},"geometry":{"type":"MultiPolygon","coordinates":[[[[28.592,69.065],[29.016,69.766],[27.732,70.164],[24.736,68.65],[21.245,69.37],[16.769,68.014],[11.931,63.128],[12.631,61.294],[11.027,58.856],[10.357,59.47],[8.382,58.313],[5.666,58.588],[4.992,61.971],[10.528,64.486],[14.761,67.811],[24.547,71.03],[31.293,70.454],[30.005,70.186],[31.101,69.558],[28.592,69.065]]],[[[24.724,77.854],[20.726,77.677],[22.884,78.455],[24.724,77.854]]],[[[18.252,79.702],[21.544,78.956],[15.913,76.77],[10.445,79.652],[18.252,79.702]]],[[[25.448,80.407],[27.408,80.056],[23.024,79.4],[17.368,80.319],[25.448,80.407]]]]}},{"type":"Feature","properties":{"ADMIN":"Nepal"},"geometry":{"type":"Polygon","coordinates":[[[81.111,30.183],[88.12,27.877],[88.06,26.415],[80.088,28.794],[81.111,30.183]]]}},{"type":"Feature","properties":{"ADMIN":"New Zealand"},"geometry":{"type":"MultiPolygon","coordinates":[[[[173.02,-40.919],[174.248,-41.349],[173.08,-43.853],[171.453,-44.243],[169.332,-46.641],[166.677,-46.22],[167.046,-45.111],[173.02,-40.919]]],[[[174.612,-36.156],[176.763,-37.881],[178.517,-37.695],[175.24,-41.688],[174.9,-39.909],[173.824,-39.509],[174.697,-37.381],[172.636,-34.529],[174.612,-36.156]]]]}},{"type":"Feature","properties":{"ADMIN":"Oman"},"geometry":{"type":"MultiPolygon","coordinates":[[[[55.208,22.708],[56.397,24.925],[59.806,22.311],[57.694,18.945],[53.109,16.651],[52,19],[55,20],[55.208,22.708]]]]}},{"type":"Feature","properties":{"ADMIN":"Pakistan"},"geometry":{"type":"Polygon","coordinates":[[[60.874,29.829],[66.346,29.888],[66.939,31.305],[69.318,31.901],[71.846,36.51],[75.158,37.133],[77.837,35.494],[73.75,34.318],[75.259,32.271],[71.778,27.913],[69.514,26.941],[71.043,24.357],[68.177,23.692],[66.373,25.425],[61.497,25.078],[63.317,26.757],[60.874,29.829]]]}},{"type":"Feature","properties":{"ADMIN":"Panama"},"geometry":{"type":"Polygon","coordinates":[[[-77.353,8.671],[-77.882,7.224],[-79.12,8.996],[-80.886,7.221],[-82.851,8.074],[-82.933,9.477],[-81.439,8.786],[-79.021,9.553],[-77.353,8.671]]]}},{"type":"Feature","properties":{"ADMIN":"Peru"},"geometry":{"type":"Polygon","coordinates":[[[-69.53,-10.952],[-68.665,-12.561],[-68.96,-16.501],[-70.373,-18.348],[-76.009,-14.649],[-79.761,-7.194],[-81.25,-6.137],[-81.1,-4.036],[-80.303,-3.405],[-80.442,-4.426],[-79.205,-4.959],[-75.545,-1.562],[-75.107,-0.057],[-73.07,-2.309],[-70.813,-2.257],[-69.894,-4.298],[-72.892,-5.275],[-73.987,-7.524],[-73.227,-9.462],[-70.482,-9.49],[-70.549,-11.009],[-69.53,-10.952]]]}},{"type":"Feature","properties":{"ADMIN":"Philippines"},"geometry":{"type":"MultiPolygon","coordinates":[[[[126.377,8.415],[125.397,5.581],[123.61,7.834],[121.92,7.192],[123.488,8.693],[125.471,8.987],[125.412,9.76],[126.377,8.415]]],[[[123.982,10.279],[122.996,9.022],[122.38,9.713],[124.078,11.233],[123.982,10.279]]],[[[118.505,9.316],[117.174,8.368],[119.511,11.37],[118.505,9.316]]],[[[121.884,11.892],[123.12,11.584],[122.003,10.441],[121.884,11.892]]],[[[125.503,12.163],[125.783,11.046],[125.012,11.311],[124.802,10.135],[124.267,12.558],[125.503,12.163]]],[[[121.527,13.07],[121.262,12.206],[120.323,13.466],[121.527,13.07]]],[[[121.321,18.504],[122.246,18.479],[122.516,17.094],[121.729,14.328],[123.95,13.782],[124.077,12.537],[120.629,13.858],[120.992,14.525],[120.07,14.971],[119.884,16.364],[121.321,18.504]]]]}},{"type":"Feature","properties":{"ADMIN":"Papua New Guinea"},"geometry":{"type":"MultiPolygon","coordinates":[[[[141.034,-9.118],[141,-2.6],[147.648,-6.084],[147.192,-7.388],[150.802,-10.294],[147.913,-10.13],[144.744,-7.63],[142.628,-9.327],[141.034,-9.118]]],[[[151.983,-5.478],[150.241,-6.318],[148.319,-5.747],[150.807,-5.456],[151.538,-4.168],[152.339,-4.313],[151.983,-5.478]]]]}},{"type":"Feature","properties":{"ADMIN":"Poland"},"geometry":{"type":"Polygon","coordinates":[[[23.484,53.912],[24.03,50.705],[22.776,49.027],[16.176,50.423],[14.075,52.981],[14.12,53.757],[17.623,54.852],[23.484,53.912]]]}},{"type":"Feature","properties":{"ADMIN":"Puerto Rico"},"geometry":{"type":"Polygon","coordinates":[[[-66.282,18.515],[-65.591,18.228],[-67.184,17.947],[-66.282,18.515]]]}},{"type":"Feature","properties":{"ADMIN":"North Korea"},"geometry":{"type":"MultiPolygon","coordinates":[[[[124.266,39.928],[129.994,42.985],[130.78,42.22],[127.533,39.757],[128.206,38.37],[126.684,37.805],[124.712,38.108],[125.387,39.388],[124.266,39.928]]]]}},{"type":"Feature","properties":{"ADMIN":"Portugal"},"geometry":{"type":"Polygon","coordinates":[[[-9.035,41.881],[-6.389,41.382],[-7.856,36.838],[-8.899,36.869],[-9.527,38.737],[-9.035,41.881]]]}},{"type":"Feature","properties":{"ADMIN":"Paraguay"},"geometry":{"type":"Polygon","coordinates":[[[-54.625,-25.739],[-55.696,-27.388],[-58.618,-27.124],[-57.777,-25.162],[-62.685,-22.249],[-61.786,-19.634],[-58.183,-19.868],[-57.937,-22.09],[-55.798,-22.357],[-55.401,-23.957],[-54.293,-24.021],[-54.625,-25.739]]]}},{"type":"Feature","properties":{"ADMIN":"Romania"},"geometry":{"type":"Polygon","coordinates":[[[28.558,43.707],[22.945,43.824],[20.22,46.127],[23.142,48.096],[26.619,48.221],[28.234,45.488],[29.603,45.293],[28.558,43.707]]]}},{"type":"Feature","properties":{"ADMIN":"Russia"},"geometry":{"type":"MultiPolygon","coordinates":[[[[48.584,41.809],[47.373,41.22],[36.675,45.245],[39.148,47.045],[38.255,47.546],[39.738,47.899],[40.069,49.601],[35.356,50.577],[33.753,52.335],[31.786,52.102],[31.305,53.074],[32.694,53.351],[30.874,55.551],[28.177,56.169],[27.42,58.725],[29.118,60.028],[28.07,60.504],[31.516,62.868],[30.036,63.553],[30.445,64.204],[29.544,64.949],[30.218,65.806],[29.055,66.944],[29.977,67.698],[28.446,68.365],[28.592,69.065],[32.133,69.906],[41.06,67.457],[41.126,66.792],[38.383,66],[33.184,66.633],[34.815,65.9],[34.944,64.414],[37.013,63.85],[37.176,65.143],[39.593,64.521],[40.436,64.764],[39.763,65.497],[42.093,66.476],[43.95,66.069],[44.532,66.756],[43.453,68.571],[46.25,68.25],[46.821,67.69],[45.562,67.01],[46.349,66.668],[53.717,68.857],[54.472,68.808],[53.486,68.201],[58.802,68.881],[59.941,68.278],[61.078,68.941],[60.03,69.52],[60.55,69.85],[68.512,68.092],[69.181,68.616],[66.93,69.455],[66.695,71.029],[69.94,73.04],[72.796,72.22],[71.848,71.409],[72.792,70.391],[72.565,69.021],[73.668,68.408],[71.28,66.32],[72.423,66.173],[75.052,67.76],[74.936,68.989],[73.602,69.628],[74.4,70.632],[73.101,71.447],[74.891,72.121],[74.659,72.832],[75.684,72.301],[75.289,71.336],[76.359,71.153],[75.903,71.874],[77.577,72.267],[81.5,71.75],[80.511,73.648],[86.822,73.937],[86.01,74.46],[87.167,75.116],[100.76,76.43],[104.352,77.698],[107.24,76.48],[114.134,75.848],[109.4,74.18],[123.201,72.971],[123.258,73.735],[126.976,73.565],[131.289,70.787],[132.254,71.836],[139.87,71.488],[139.148,72.416],[140.468,72.849],[149.5,72.2],[152.969,70.842],[158.998,70.867],[160.941,69.437],[167.836,69.583],[169.578,68.694],[170.817,69.014],[170.453,70.097],[180,68.964],[180,64.98],[177.411,64.608],[179.228,62.304],[173.68,61.653],[170.331,59.882],[168.9,60.574],[163.539,59.869],[162.017,58.243],[163.192,57.615],[162.117,54.855],[160.369,54.344],[156.79,51.011],[155.434,55.381],[155.914,56.768],[163.67,61.141],[164.474,62.551],[160.121,60.544],[159.302,61.774],[156.721,61.434],[154.218,59.758],[155.044,59.145],[142.198,59.04],[135.126,54.73],[138.165,53.755],[139.902,54.19],[141.345,53.09],[140.062,48.447],[134.869,43.398],[132.278,43.285],[130.78,42.22],[131.025,44.968],[133.097,45.144],[135.026,48.478],[130.987,47.79],[129.398,49.441],[127.657,49.76],[125.068,53.161],[121.003,53.251],[119.288,50.143],[117.879,49.511],[114.362,50.248],[108.475,49.283],[98.861,52.047],[97.26,49.726],[92.235,50.802],[87.36,49.215],[83.383,51.069],[80.036,50.865],[76.891,54.491],[73.426,53.49],[69.068,55.385],[61.437,54.006],[61.7,52.98],[59.968,51.96],[61.337,50.799],[55.717,50.622],[50.767,51.693],[48.578,49.875],[47.549,50.455],[46.466,48.394],[49.101,46.399],[46.682,44.609],[48.584,41.809]]],[[[21.268,55.19],[22.731,54.328],[19.661,54.426],[21.268,55.19]]],[[[33.436,45.972],[36.53,45.47],[33.883,44.361],[32.454,45.327],[33.436,45.972]]],[[[143.648,50.748],[144.654,48.976],[143.174,49.307],[142.559,47.862],[143.505,46.138],[142.748,46.741],[142.092,45.967],[142.21,54.225],[143.648,50.748]]],[[[-175.014,66.584],[-171.857,66.913],[-169.9,65.977],[-172.53,65.438],[-172.955,64.253],[-178.686,66.112],[-179.884,65.875],[-180,64.98],[-180,68.964],[-175.014,66.584]]],[[[180,70.832],[178.725,71.099],[180,71.516],[180,70.832]]],[[[-178.694,70.893],[-180,70.832],[-180,71.516],[-177.578,71.269],[-178.694,70.893]]],[[[145.086,75.563],[144.3,74.82],[138.955,74.611],[136.974,75.262],[138.831,76.137],[145.086,75.563]]],[[[57.536,70.72],[53.677,70.763],[51.456,72.015],[55.632,75.081],[68.852,76.545],[58.477,74.309],[55.419,72.371],[57.536,70.72]]],[[[105.075,78.307],[99.438,77.921],[102.086,79.346],[105.075,78.307]]],[[[99.94,78.881],[94.973,79.045],[91.181,80.341],[95.941,81.25],[100.187,79.78],[99.94,78.881]]]]}},{"type":"Feature","properties":{"ADMIN":"Rwanda"},"geometry":{"type":"Polygon","coordinates":[[[30.47,-2.414],[29.025,-2.839],[29.579,-1.341],[30.419,-1.135],[30.47,-2.414]]]}},{"type":"Feature","properties":{"ADMIN":"Western Sahara"},"geometry":{"type":"Polygon","coordinates":[[[-8.666,27.656],[-8.687,25.881],[-11.969,25.933],[-12.929,21.327],[-17.063,21],[-14.751,21.501],[-11.393,26.883],[-8.666,27.656]]]}},{"type":"Feature","properties":{"ADMIN":"Saudi Arabia"},"geometry":{"type":"Polygon","coordinates":[[[51.58,24.245],[52.001,23.001],[55.208,22.708],[55,20],[49.117,18.617],[47,16.95],[43.381,17.58],[42.779,16.348],[39.139,21.292],[38.493,23.688],[34.632,28.059],[34.832,28.957],[37.999,30.509],[37.002,31.508],[40.4,31.89],[44.709,29.179],[48.416,28.552],[51.58,24.245]]]}},{"type":"Feature","properties":{"ADMIN":"Sudan"},"geometry":{"type":"Polygon","coordinates":[[[24.567,8.229],[21.937,12.588],[23.025,15.681],[23.887,15.611],[23.85,20],[25,20.003],[25,22],[36.866,22],[37.482,18.614],[38.41,17.998],[36.853,16.957],[33.975,8.685],[32.743,12.248],[31.353,9.81],[26.752,9.467],[25.07,10.274],[23.887,8.62],[24.567,8.229]]]}},{"type":"Feature","properties":{"ADMIN":"South Sudan"},"geometry":{"type":"Polygon","coordinates":[[[27.374,5.234],[23.887,8.62],[25.07,10.274],[26.752,9.467],[31.353,9.81],[32.074,11.973],[33.207,12.179],[33.975,8.685],[32.954,7.785],[35.298,5.506],[33.39,3.79],[30.834,3.509],[27.374,5.234]]]}},{"type":"Feature","properties":{"ADMIN":"Senegal"},"geometry":{"type":"Polygon","coordinates":[[[-11.514,12.443],[-16.677,12.385],[-16.842,13.151],[-13.845,13.505],[-16.714,13.595],[-17.625,14.73],[-16.121,16.456],[-14.577,16.598],[-12.171,14.617],[-11.514,12.443]]]}},{"type":"Feature","properties":{"ADMIN":"Sierra Leone"},"geometry":{"type":"Polygon","coordinates":[[[-13.247,8.903],[-11.117,10.046],[-10.23,8.406],[-11.439,6.786],[-13.247,8.903]]]}},{"type":"Feature","properties":{"ADMIN":"El Salvador"},"geometry":{"type":"Polygon","coordinates":[[[-90.096,13.735],[-89.353,14.424],[-87.724,13.785],[-87.904,13.149],[-90.096,13.735]]]}},{"type":"Feature","properties":{"ADMIN":"Somaliland"},"geometry":{"type":"Polygon","coordinates":[[[42.777,10.927],[43.145,11.462],[44.614,10.442],[48.948,11.411],[48.938,9.452],[46.948,7.997],[43.679,9.184],[42.777,10.927]]]}},{"type":"Feature","properties":{"ADMIN":"Somalia"},"geometry":{"type":"Polygon","coordinates":[[[41.855,3.919],[44.964,5.002],[48.938,9.452],[48.948,11.411],[51.111,12.025],[48.595,5.339],[41.585,-1.683],[40.981,2.785],[41.855,3.919]]]}},{"type":"Feature","properties":{"ADMIN":"Republic of Serbia"},"geometry":{"type":"Polygon","coordinates":[[[22.657,44.235],[22.381,42.32],[20.258,42.813],[19.219,43.524],[18.83,45.909],[20.22,46.127],[22.657,44.235]]]}},{"type":"Feature","properties":{"ADMIN":"Suriname"},"geometry":{"type":"Polygon","coordinates":[[[-54.525,2.312],[-56.539,1.9],[-57.602,3.335],[-57.147,5.973],[-53.958,5.757],[-54.525,2.312]]]}},{"type":"Feature","properties":{"ADMIN":"Slovakia"},"geometry":{"type":"Polygon","coordinates":[[[16.98,48.123],[18.555,49.495],[22.558,49.086],[21.872,48.32],[16.98,48.123]]]}},{"type":"Feature","properties":{"ADMIN":"Slovenia"},"geometry":{"type":"Polygon","coordinates":[[[13.806,46.509],[16.565,46.504],[15.328,45.452],[13.715,45.5],[13.806,46.509]]]}},{"type":"Feature","properties":{"ADMIN":"Sweden"},"geometry":{"type":"Polygon","coordinates":[[[20.646,69.106],[23.539,67.936],[23.903,66.007],[17.848,62.749],[17.12,61.341],[18.788,60.082],[16.829,58.72],[15.88,56.104],[12.943,55.362],[11.027,58.856],[12.631,61.294],[11.931,63.128],[16.769,68.014],[20.646,69.106]]]}},{"type":"Feature","properties":{"ADMIN":"Swaziland"},"geometry":{"type":"Polygon","coordinates":[[[31.838,-25.843],[31.283,-27.286],[30.677,-26.398],[31.838,-25.843]]]}},{"type":"Feature","properties":{"ADMIN":"Syria"},"geometry":{"type":"Polygon","coordinates":[[[42.35,37.23],[41.006,34.419],[36.834,32.313],[35.701,32.716],[36.739,36.818],[42.35,37.23]]]}},{"type":"Feature","properties":{"ADMIN":"Chad"},"geometry":{"type":"Polygon","coordinates":[[[22.864,11.142],[17.965,7.891],[15.279,7.422],[13.954,9.549],[15.468,9.982],[13.54,14.367],[15.248,16.627],[15.903,20.388],[14.851,22.863],[15.861,23.41],[23.838,19.58],[23.887,15.611],[23.025,15.681],[21.937,12.588],[22.864,11.142]]]}},{"type":"Feature","properties":{"ADMIN":"Togo"},"geometry":{"type":"Polygon","coordinates":[[[0.9,10.997],[1.865,6.142],[1.06,5.929],[-0.05,10.707],[0.9,10.997]]]}},{"type":"Feature","properties":{"ADMIN":"Thailand"},"geometry":{"type":"Polygon","coordinates":[[[105.219,14.273],[102.988,14.226],[102.585,12.187],[100.098,13.407],[99.222,9.239],[102.141,6.222],[101.154,5.691],[98.15,8.35],[99.587,11.893],[98.192,15.124],[98.903,16.178],[97.376,18.445],[100.116,20.418],[101.282,19.463],[101.06,17.512],[103.2,18.31],[104.717,17.429],[105.219,14.273]]]}},{"type":"Feature","properties":{"ADMIN":"Tajikistan"},"geometry":{"type":"Polygon","coordinates":[[[74.98,37.42],[71.845,36.738],[70.807,38.486],[68.136,37.023],[68.176,38.902],[67.442,39.14],[70.667,40.96],[71.014,40.244],[69.465,39.527],[73.675,39.431],[74.98,37.42]]]}},{"type":"Feature","properties":{"ADMIN":"Turkmenistan"},"geometry":{"type":"Polygon","coordinates":[[[66.519,37.363],[65.746,37.661],[62.231,35.271],[57.33,38.029],[53.922,37.199],[53.881,38.952],[52.694,40.034],[52.915,40.877],[54.737,40.951],[53.722,42.123],[52.815,41.135],[52.502,41.783],[54.079,42.324],[57.096,41.322],[58.629,42.752],[66.519,37.363]]]}},{"type":"Feature","properties":{"ADMIN":"East Timor"},"geometry":{"type":"Polygon","coordinates":[[[125.089,-9.393],[125.086,-8.657],[127.336,-8.397],[125.089,-9.393]]]}},{"type":"Feature","properties":{"ADMIN":"Trinidad and Tobago"},"geometry":{"type":"Polygon","coordinates":[[[-61.68,10.76],[-60.935,10.11],[-61.95,10.09],[-61.68,10.76]]]}},{"type":"Feature","properties":{"ADMIN":"Tunisia"},"geometry":{"type":"Polygon","coordinates":[[[9.482,30.308],[7.524,34.097],[8.421,36.946],[9.51,37.35],[11.029,37.092],[10.15,34.331],[11.489,33.137],[9.482,30.308]]]}},{"type":"Feature","properties":{"ADMIN":"Turkey"},"geometry":{"type":"MultiPolygon","coordinates":[[[[43.583,41.092],[44.794,39.713],[44.109,39.428],[44.293,37.002],[36.739,36.818],[36.15,35.822],[36.161,36.651],[34.715,36.796],[29.7,36.144],[27.641,36.659],[26.318,38.208],[26.171,39.464],[27.28,40.42],[33.513,42.019],[38.348,40.949],[43.583,41.092]]],[[[26.117,41.827],[28.988,41.3],[26.358,40.152],[26.117,41.827]]]]}},{"type":"Feature","properties":{"ADMIN":"Taiwan"},"geometry":{"type":"Polygon","coordinates":[[[121.778,24.394],[120.747,21.971],[120.106,23.556],[121.495,25.295],[121.778,24.394]]]}},{"type":"Feature","properties":{"ADMIN":"United Republic of Tanzania"},"geometry":{"type":"Polygon","coordinates":[[[29.34,-4.5],[30.752,-3.359],[30.419,-1.135],[33.904,-0.95],[39.202,-4.677],[39.187,-8.486],[40.317,-10.317],[37.471,-11.569],[34.56,-11.52],[33.74,-9.417],[30.74,-8.34],[29.34,-4.5]]]}},{"type":"Feature","properties":{"ADMIN":"Uganda"},"geometry":{"type":"Polygon","coordinates":[[[29.579,-1.341],[31.174,2.204],[30.834,3.509],[34.005,4.25],[35.036,1.906],[33.904,-0.95],[29.579,-1.341]]]}},{"type":"Feature","properties":{"ADMIN":"Ukraine"},"geometry":{"type":"Polygon","coordinates":[[[23.527,51.578],[30.555,51.32],[33.753,52.335],[35.356,50.577],[40.081,49.307],[39.738,47.899],[35.013,45.738],[31.675,46.706],[28.68,45.304],[28.863,46.438],[30.025,46.424],[28.671,48.118],[22.086,48.422],[23.923,50.425],[23.527,51.578]]]}},{"type":"Feature","properties":{"ADMIN":"Uruguay"},"geometry":{"type":"Polygon","coordinates":[[[-58.427,-33.909],[-57.625,-30.216],[-53.21,-32.728],[-54.936,-34.953],[-58.427,-33.909]]]}},{"type":"Feature","properties":{"ADMIN":"United States of America"},"geometry":{"type":"MultiPolygon","coordinates":[[[[-122.84,49],[-94.818,49.389],[-91.64,48.14],[-88.378,48.303],[-82.551,45.348],[-82.69,41.675],[-74.867,45],[-71.505,45.008],[-69.237,47.448],[-67.79,47.066],[-66.965,44.81],[-70.116,43.684],[-70.825,42.335],[-69.965,41.637],[-73.71,40.931],[-71.945,40.93],[-73.952,40.751],[-74.906,38.94],[-75.528,39.499],[-75.057,38.404],[-75.94,37.217],[-76.35,39.15],[-76.329,38.083],[-76.99,38.24],[-75.727,35.551],[-81.336,31.44],[-80.381,25.206],[-81.71,25.87],[-83.71,29.937],[-86.4,30.4],[-89.594,30.16],[-89.408,29.16],[-94.69,29.48],[-97.14,27.83],[-97.53,25.84],[-99.02,26.37],[-100.958,29.381],[-103.94,29.27],[-106.508,31.755],[-111.024,31.335],[-114.721,32.721],[-117.128,32.535],[-120.623,34.609],[-124.398,40.313],[-123.899,45.523],[-124.687,48.184],[-122.587,47.096],[-122.84,49]]],[[[-140.986,69.712],[-140.998,60.306],[-137.452,58.905],[-135.476,59.788],[-130.008,55.916],[-130.536,54.803],[-134.078,58.123],[-139.868,59.538],[-147.114,60.885],[-151.716,59.156],[-150.621,61.284],[-158.433,55.994],[-164.942,54.572],[-158.684,57.017],[-157.042,58.919],[-161.969,58.672],[-162.518,59.99],[-165.346,60.507],[-165.734,62.075],[-164.563,63.146],[-160.773,63.766],[-161.518,64.403],[-160.778,64.789],[-164.961,64.447],[-168.111,65.67],[-164.475,66.577],[-161.678,66.116],[-166.764,68.359],[-166.205,68.883],[-156.581,71.358],[-140.986,69.712]]],[[[-155.542,19.083],[-155.861,20.267],[-154.807,19.509],[-155.542,19.083]]],[[[-153.006,57.116],[-154.671,57.461],[-152.141,57.591],[-153.006,57.116]]]]}},{"type":"Feature","properties":{"ADMIN":"Uzbekistan"},"geometry":{"type":"Polygon","coordinates":[[[67.83,37.145],[58.629,42.752],[55.968,41.309],[55.929,44.996],[58.503,45.587],[62.013,43.504],[64.901,43.728],[66.714,41.168],[68.26,40.662],[70.962,42.266],[70.42,41.52],[73.055,40.866],[71.775,40.146],[69.329,40.728],[67.701,39.58],[68.392,38.157],[67.83,37.145]]]}},{"type":"Feature","properties":{"ADMIN":"Venezuela"},"geometry":{"type":"Polygon","coordinates":[[[-60.734,5.2],[-63.093,3.771],[-64.816,4.056],[-63.369,2.201],[-66.326,0.724],[-67.81,2.821],[-67.341,6.095],[-71.96,6.992],[-73.305,9.152],[-72.905,10.45],[-71.332,11.776],[-72.074,9.866],[-71.265,9.137],[-71.401,10.969],[-69.943,12.162],[-68.194,10.555],[-61.881,10.716],[-62.73,10.42],[-59.758,8.367],[-61.41,5.959],[-60.734,5.2]]]}},{"type":"Feature","properties":{"ADMIN":"Vietnam"},"geometry":{"type":"Polygon","coordinates":[[[102.17,22.465],[105.329,23.352],[108.05,21.552],[105.662,19.058],[108.877,15.277],[109.2,11.667],[105.158,8.6],[104.334,10.487],[107.491,12.337],[107.565,15.202],[103.897,19.265],[104.823,19.887],[104.435,20.759],[103.204,20.767],[102.17,22.465]]]}},{"type":"Feature","properties":{"ADMIN":"Yemen"},"geometry":{"type":"Polygon","coordinates":[[[52,19],[53.109,16.651],[52.168,15.597],[43.483,12.637],[42.605,15.213],[43.381,17.58],[47,16.95],[49.117,18.617],[52,19]]]}},{"type":"Feature","properties":{"ADMIN":"South Africa"},"geometry":{"type":"Polygon","coordinates":[[[19.896,-24.768],[20.89,-26.829],[21.606,-26.727],[23.312,-25.269],[25.665,-25.487],[28.017,-22.828],[30.66,-22.152],[31.931,-24.369],[31.838,-25.843],[30.686,-26.744],[32.83,-26.742],[32.203,-28.752],[28.22,-32.772],[19.616,-34.819],[18.377,-34.137],[18.222,-31.662],[16.345,-28.577],[19.895,-28.461],[19.896,-24.768]],[[28.978,-28.956],[26.999,-29.876],[28.107,-30.546],[28.978,-28.956]]]}},{"type":"Feature","properties":{"ADMIN":"Zambia"},"geometry":{"type":"Polygon","coordinates":[[[23.215,-17.523],[21.888,-16.08],[21.934,-12.898],[24.016,-12.911],[23.912,-10.927],[29.7,-13.257],[29.616,-12.179],[28.372,-11.794],[28.735,-8.527],[30.346,-8.238],[33.231,-9.677],[33.214,-13.972],[30.179,-14.796],[27.044,-17.938],[23.215,-17.523]]]}},{"type":"Feature","properties":{"ADMIN":"Zimbabwe"},"geometry":{"type":"Polygon","coordinates":[[[29.432,-22.091],[28.021,-21.486],[25.264,-17.737],[27.044,-17.938],[30.274,-15.508],[32.848,-16.713],[32.773,-19.716],[31.191,-22.252],[29.432,-22.091]]]}}]}